{
  "type": "FeatureCollection",
  "features": [
    {
      "type": "Feature",
      "properties": {
        "norad_id": 56564,
        "name": "BEIDOU-3 G4 (C62)",
        "group": "beidou",
        "lat": 0.7624635715063112,
        "lon": 56.09354378389765,
        "alt_km": 35791.93623511404,
        "timestamp": "2025-12-12T11:38:31.677476+00:00",
        "meta_object_name": "BEIDOU-3 G4 (C62)",
        "meta_object_id": "2023-066A",
        "meta_epoch": "2025-12-12T05:33:38.447136",
        "meta_mean_motion": 1.00271568,
        "meta_eccentricity": 0.0002912,
        "meta_inclination": 0.8157,
        "meta_ra_of_asc_node": 302.0267,
        "meta_arg_of_pericenter": 232.7782,
        "meta_mean_anomaly": 149.8516,
        "meta_ephemeris_type": 0,
        "meta_classification_type": "U",
        "meta_norad_cat_id": 56564,
        "meta_element_set_no": 999,
        "meta_rev_at_epoch": 952,
        "meta_bstar": 0,
        "meta_mean_motion_dot": -1.01e-06,
        "meta_mean_motion_ddot": 0,
        "tle_line1": "1 56564U 23066A   25346.23169499 -.00000101  00000+0  00000+0 0  9997",
        "tle_line2": "2 56564   0.8157 302.0267 0002912 232.7782 149.8516  1.00271568  9524"
      },
      "geometry": {
        "type": "Point",
        "coordinates": [
          56.09354378389765,
          0.7624635715063112
        ]
      }
    },
    {
      "type": "Feature",
      "properties": {
        "norad_id": 58654,
        "name": "BEIDOU-3 M28 (C50)",
        "group": "beidou",
        "lat": 25.571308024234128,
        "lon": 87.74062077800836,
        "alt_km": 21528.612324250265,
        "timestamp": "2025-12-12T11:38:31.677488+00:00",
        "meta_object_name": "BEIDOU-3 M28 (C50)",
        "meta_object_id": "2023-207A",
        "meta_epoch": "2025-12-11T21:37:33.991968",
        "meta_mean_motion": 1.86229651,
        "meta_eccentricity": 0.00023562,
        "meta_inclination": 55.5838,
        "meta_ra_of_asc_node": 68.6297,
        "meta_arg_of_pericenter": 269.3243,
        "meta_mean_anomaly": 90.6691,
        "meta_ephemeris_type": 0,
        "meta_classification_type": "U",
        "meta_norad_cat_id": 58654,
        "meta_element_set_no": 999,
        "meta_rev_at_epoch": 1335,
        "meta_bstar": 0,
        "meta_mean_motion_dot": -6.9e-07,
        "meta_mean_motion_ddot": 0,
        "tle_line1": "1 58654U 23207A   25345.90108787 -.00000069  00000+0  00000+0 0  9995",
        "tle_line2": "2 58654  55.5838  68.6297 0002356 269.3243  90.6691  1.86229651 13350"
      },
      "geometry": {
        "type": "Point",
        "coordinates": [
          87.74062077800836,
          25.571308024234128
        ]
      }
    },
    {
      "type": "Feature",
      "properties": {
        "norad_id": 58655,
        "name": "BEIDOU-3 M26 (C48)",
        "group": "beidou",
        "lat": 10.552596601373228,
        "lon": -118.72386052713296,
        "alt_km": 21526.581982635107,
        "timestamp": "2025-12-12T11:38:31.677499+00:00",
        "meta_object_name": "BEIDOU-3 M26 (C48)",
        "meta_object_id": "2023-207B",
        "meta_epoch": "2025-12-11T03:52:58.066752",
        "meta_mean_motion": 1.86231203,
        "meta_eccentricity": 0.000378,
        "meta_inclination": 55.5852,
        "meta_ra_of_asc_node": 68.6411,
        "meta_arg_of_pericenter": 255.3563,
        "meta_mean_anomaly": 104.6232,
        "meta_ephemeris_type": 0,
        "meta_classification_type": "U",
        "meta_norad_cat_id": 58655,
        "meta_element_set_no": 999,
        "meta_rev_at_epoch": 1332,
        "meta_bstar": 0,
        "meta_mean_motion_dot": -6.3e-07,
        "meta_mean_motion_ddot": 0,
        "tle_line1": "1 58655U 23207B   25345.16178318 -.00000063  00000+0  00000+0 0  9995",
        "tle_line2": "2 58655  55.5852  68.6411 0003780 255.3563 104.6232  1.86231203 13327"
      },
      "geometry": {
        "type": "Point",
        "coordinates": [
          -118.72386052713296,
          10.552596601373228
        ]
      }
    },
    {
      "type": "Feature",
      "properties": {
        "norad_id": 61186,
        "name": "BEIDOU-3 M25 (C47)",
        "group": "beidou",
        "lat": -52.27484362362104,
        "lon": -117.81591868468749,
        "alt_km": 21519.003677183115,
        "timestamp": "2025-12-12T11:38:31.677511+00:00",
        "meta_object_name": "BEIDOU-3 M25 (C47)",
        "meta_object_id": "2024-168B",
        "meta_epoch": "2025-12-09T12:38:32.089056",
        "meta_mean_motion": 1.86229941,
        "meta_eccentricity": 0.0005432,
        "meta_inclination": 54.6447,
        "meta_ra_of_asc_node": 308.8306,
        "meta_arg_of_pericenter": 296.174,
        "meta_mean_anomaly": 164.5169,
        "meta_ephemeris_type": 0,
        "meta_classification_type": "U",
        "meta_norad_cat_id": 61186,
        "meta_element_set_no": 999,
        "meta_rev_at_epoch": 825,
        "meta_bstar": 0,
        "meta_mean_motion_dot": -7.8e-07,
        "meta_mean_motion_ddot": 0,
        "tle_line1": "1 61186U 24168B   25343.52676029 -.00000078  00000+0  00000+0 0  9991",
        "tle_line2": "2 61186  54.6447 308.8306 0005432 296.1740 164.5169  1.86229941  8254"
      },
      "geometry": {
        "type": "Point",
        "coordinates": [
          -117.81591868468749,
          -52.27484362362104
        ]
      }
    },
    {
      "type": "Feature",
      "properties": {
        "norad_id": 61187,
        "name": "BEIDOU-3 M27 (C49)",
        "group": "beidou",
        "lat": 44.39753844736938,
        "lon": -7.284722286687147,
        "alt_km": 21521.92928657648,
        "timestamp": "2025-12-12T11:38:31.677523+00:00",
        "meta_object_name": "BEIDOU-3 M27 (C49)",
        "meta_object_id": "2024-168C",
        "meta_epoch": "2025-12-12T03:14:00.933792",
        "meta_mean_motion": 1.86230278,
        "meta_eccentricity": 0.0002376,
        "meta_inclination": 54.6378,
        "meta_ra_of_asc_node": 308.7239,
        "meta_arg_of_pericenter": 336.4923,
        "meta_mean_anomaly": 207.6472,
        "meta_ephemeris_type": 0,
        "meta_classification_type": "U",
        "meta_norad_cat_id": 61187,
        "meta_element_set_no": 999,
        "meta_rev_at_epoch": 577,
        "meta_bstar": 0,
        "meta_mean_motion_dot": -9.1e-07,
        "meta_mean_motion_ddot": 0,
        "tle_line1": "1 61187U 24168C   25346.13473303 -.00000091  00000+0  00000+0 0  9997",
        "tle_line2": "2 61187  54.6378 308.7239 0002376 336.4923 207.6472  1.86230278  5772"
      },
      "geometry": {
        "type": "Point",
        "coordinates": [
          -7.284722286687147,
          44.39753844736938
        ]
      }
    }
  ]
}